CELESTIS-17 & SHERPA-FX1
1 47486U 21006CB  26068.64311433  .00007207  00000+0  24301-3 0  9993
2 47486  97.2397 112.1052 0006630 178.1385 181.9882 15.30994801284065
STARLINK-34471          
1 64739U 25144R   26068.58207338  .00017465  00000+0  60055-3 0  9994
2 64739  53.1592 181.6625 0001140  90.6448 269.4684 15.30191669 39633
